ONEWEB-0578             
1 56067U 23043X   24246.60054019  .00000159  00000+0  35397-3 0  9993
2 56067  87.9343  13.8984 0001949  95.1077 265.0280 13.21825491 72025
ONEWEB-0579             
1 56068U 23043Y   24246.59107491  .00000133  00000+0  29163-3 0  9991
2 56068  87.9341  13.8956 0001501 107.7593 252.3705 13.21826743 72033
ONEWEB-0581             
1 56069U 23043Z   24246.56435832  .00000208  00000+0  51124-3 0  9997
2 56069  87.9168 358.7525 0001860  97.5268 262.6074 13.16592528 73081
ONEWEB-0609             
1 56070U 23043AA  24246.45976091  .00000217  00000+0  54224-3 0  9998
2 56070  87.9068  29.1019 0001789  99.9581 260.1751 13.15550732 70614
ONEWEB-0613             
1 56071U 23043AB  24246.45502925  .00000191  00000+0  47410-3 0  9990
2 56071  87.9073  29.1019 0001563 105.9371 254.1931 13.15548742 70617
ONEWEB-0630             
1 56072U 23043AC  24246.45026337  .00000132  00000+0  31692-3 0  9999
2 56072  87.9068  29.0910 0001656 109.9486 250.1823 13.15549490 70601
ONEWEB-0632             
1 56073U 23043AD  24246.44549675  .00000080  00000+0  17804-3 0  9995
2 56073  87.9069  29.1109 0001424  89.9699 270.1594 13.15550948 70607
ONEWEB-0633             
1 56074U 23043AE  24246.43916068  .00000014  00000+0  24921-5 0  9996
2 56074  87.9063  29.0909 0001780 115.2954 244.8361 13.15549672 70580
